SL-6 R/B(2)             
1 25850U 99036D   21217.84381904  .00000225  00000-0  00000+0 0  9995
2 25850  62.3534  88.0342 7376074 277.0102  11.9694  1.96660052158563
CXO                     
1 25867U 99040B   21221.00234936  .00000622  00000-0  00000-0 0  9995
2 25867  53.8442 253.0842 8405282 226.8086   0.4704  0.37807353 10643
IUS R/B(2)              
1 25869U 99040D   21218.37959949 -.00000625  00000-0  00000-0 0  9995
2 25869  37.1995 359.7131 8218801 136.4671 330.0129  0.97235280 78279
TELKOM 1                
1 25880U 99042A   21218.83191877 -.00000199  00000-0  00000-0 0  9995
2 25880   3.2662  85.2721 0013340 207.8714  47.9162  1.00288711 80587
ABS-7                   
1 25894U 99046A   21218.80942601  .00000155  00000-0  00000-0 0  9991
2 25894   1.9741  90.9599 0003351  40.8435 148.4814  1.00271673 79327
YAMAL 101               
1 25896U 99047A   21218.44659057 -.00000058  00000-0  00000-0 0  9997
2 25896  14.2938  12.9974 0090584  19.8435 339.0145  0.99857880 80060
YAMAL 102               
1 25897U 99047B   21218.93099487 -.00000229  00000-0  00000+0 0  9996
2 25897  12.2863  25.0516 0005719  11.3126 177.8051  0.99980812 80238
SL-12 R/B(2)            
1 25900U 99047E   21218.76993858 -.00000376  00000-0  00000+0 0  9990
2 25900  14.2227  12.7490 0105027  19.1926 337.3495  1.00149992 80199
ABS-6                   
1 25924U 99053A   21219.02063323 -.00000119  00000-0  00000+0 0  9993
2 25924   0.0522 296.8035 0003030 179.9555   5.4305  1.00270586 80041
SL-12 R/B(2)            
1 25927U 99053D   21218.72201562 -.00000061  00000-0  00000-0 0  9998
2 25927  15.5479 152.9000 5371635 269.2209  38.1954  1.89351180150805
BLOCK DM-SL R/B         
1 25938U 99056B   21218.78567530 -.00000028  00000-0  00000-0 0  9992
2 25938   0.8734   4.8936 6452132  42.2488 351.4780  2.12161569169133
AMC-4 (GE-4)            
1 25954U 99060A   21218.63229991  .00000088  00000-0  00000-0 0  9990
2 25954   0.7310  95.4257 0002910  48.1228 264.5531  1.00272301 25747
UFO 10 (USA 146)        
1 25967U 99063A   21218.86186205 -.00000187  00000-0  00000-0 0  9993
2 25967   8.3345  34.4205 0005944  96.6359 111.8653  1.00267970 79544
XMM-NEWTON              
1 25989U 99066A   21220.37641174  .00000238  00000-0  00000-0 0  9996
2 25989  70.7306 310.9746 6502422  89.9464   0.2744  0.50137207 14118
ARIANE 5 R/B            
1 25990U 99066B   21216.66574645 -.00000760  00000-0  00000-0 0  9994
2 25990  62.8621   3.4057 8449534 100.2697 352.2488  0.55293750 15535
GALAXY 11 (G-11)        
1 26038U 99071A   21218.96993817 -.00000163  00000-0  00000+0 0  9991
2 26038   2.2210  91.4710 0000516 237.3389 242.9797  1.00271459 79271
COSMOS 2368             
1 26042U 99073A   21218.42131378  .00000549  00000-0  00000-0 0  9993
2 26042  67.1994  65.2629 6356200 199.2505 117.3957  2.00608005158306
SL-6 R/B(2)             
1 26045U 99073D   21218.72325074  .00000720  00000-0  00000-0 0  9998
2 26045  65.6151 359.2006 6734421 198.0888 116.0353  2.04167353160846
USA 148                 
1 26052U 00001A   21218.76694212  .00000041  00000-0  00000+0 0  9991
2 26052   9.0441  44.2490 0001843  70.7031 297.0286  1.00274326 13825
GALAXY 10R (G-10R)      
1 26056U 00002A   21218.87132497 -.00000347  00000-0  00000-0 0  9991
2 26056   9.3856  42.9176 0007382  78.1270 280.3504  0.99644357 78639
GARUDA 1                
1 26089U 00011A   21218.63971497 -.00000082  00000-0  00000-0 0  9998
2 26089   5.2468  85.8357 0005225  14.8352 346.9425  0.99904021 23928
SL-12 R/B(2)            
1 26090U 00011B   21218.55425010 -.00000175  00000-0  00000-0 0  9999
2 26090  16.9304  74.4569 5368258 295.3100  14.6529  1.90706177149621
SL-12 R/B(2)            
1 26101U 00013D   21218.69279160  .00000019  00000-0  00000-0 0  9998
2 26101  13.8924  14.4674 0011827  40.0882 318.5815  1.00751155 78748
ASIASTAR                
1 26107U 00016A   21218.88757258 -.00000335  00000-0  00000-0 0  9999
2 26107   4.9469  74.3801 0004134  64.2238 241.5569  1.00270837 78117
INSAT-3B                
1 26108U 00016B   21218.85466191 -.00000246  00000-0  00000-0 0  9991
2 26108   7.1961  58.7801 0003017 149.8059 212.6703  0.99666393 33748
IMAGE                   
1 26113U 00017A   21218.40390399  .00000055  00000-0  78912-3 0  9992
2 26113  94.9328 285.1760 7623389 131.4786 324.6083  1.68647454131553
DELTA 2 R/B(2)          
1 26115U 00017C   21216.90607089 -.00000137  00000-0 -40530-2 0  9991
2 26115  94.9502 285.2843 7642502 134.1922 321.7726  1.68212050131206
SL-12 R/B(2)            
1 26246U 00019D   21218.49191667  .00000035  00000-0  00000-0 0  9995
2 26246  14.2031  15.2825 0011018 291.3990  69.6146  0.99555012 77428
GALAXY 4R (G-4R)        
1 26298U 00020A   21218.69692959  .00000124  00000-0  00000+0 0  9994
2 26298  10.4665  35.7543 0004226 105.7314 110.2108  0.99831102 77935
USA 149 (DSP 20)        
1 26356U 00024A   21218.75500713  .00000097  00000-0  00000-0 0  9996
2 26356  11.8516  23.5738 0002908 214.6876 183.4603  1.00264902 15114
IUS R/B(2)              
1 26359U 00024D   21218.23511014 -.00000215  00000-0  00000+0 0  9990
2 26359  11.9567  24.1612 0008545  91.0783 269.0970  0.99713408  7643
EUTELSAT 80A            
1 26369U 00028A   21218.87211063 -.00000103  00000-0  00000-0 0  9993
2 26369   4.3516  78.1637 0004135 133.8608  45.0541  1.00273055 77636
GORIZONT 33             
1 26372U 00029A   21218.69351976  .00000110  00000-0  00000-0 0  9993
2 26372  12.9636  19.4982 0004942  59.2718 328.8160  1.00343869 77627
BREEZE-M R/B            
1 26373U 00029B   21218.88261253 -.00000401  00000-0  00000-0 0  9997
2 26373  12.6503  19.1586 0262183 293.7884  65.5579  1.00387347 77625
SL-12 R/B(2)            
1 26381U 00031D   21218.15852799 -.00000099  00000-0  00000+0 0  9992
2 26381  13.9683  16.5048 0016266  62.5032 302.1288  0.99442557 76692
FENGYUN 2B              
1 26382U 00032A   21218.56090802 -.00000036  00000-0  00000-0 0  9990
2 26382  11.5379  28.9192 0003522   4.9123 195.7050  1.00065346 77153
TDRS 8                  
1 26388U 00034A   21218.53337438 -.00000232  00000-0  00000-0 0  9992
2 26388   9.8722  44.7037 0018995 343.4251 208.0338  1.00281061 77373
SL-12 R/B(2)            
1 26393U 00035D   21216.88852205  .00000173  00000-0  00000+0 0  9991
2 26393  61.5220 231.7969 6593796 293.9796  12.3829  1.45658182112254
COSMOS 2371             
1 26394U 00036A   21219.09041682 -.00000136  00000-0  00000+0 0  9998
2 26394  13.0112  20.2347 0006316  72.1477 334.3415  1.00264155 77232
SL-12 R/B(2)            
1 26397U 00036D   21218.75816404  .00000053  00000-0  00000+0 0  9992
2 26397  12.9901  20.1383 0022399  35.7904 358.4374  1.00203772 77168
CLUSTER II-FM7 (SAMBA)  
1 26410U 00041A   21219.49260395 -.00000003  00000-0  00000-0 0  9995
2 26410 132.9984 344.9267 5004599 193.1459 359.2215  0.44207771 12439
CLUSTER II-FM6 (SALSA)  
1 26411U 00041B   21219.48768837  .00000011  00000-0  00000-0 0  9997
2 26411 133.9546 346.9584 6526090 197.8350 359.1832  0.44217651 12472
INTELSAT 9 (IS-9)       
1 26451U 00043A   21218.43397464 -.00000288  00000-0  00000-0 0  9998
2 26451   6.5474  63.3157 0002412  80.3902 277.7153  1.00271146 26330
BLOCK DM-SL R/B         
1 26452U 00043B   21218.83433747 -.00000027  00000-0  00000-0 0  9999
2 26452   1.1239 234.2020 6702023 350.3498 213.8378  2.16745918166088
FENGYUN 2B AKM          
1 26460U 00032C   21218.88830620 -.00000324  00000-0  00000-0 0  9992
2 26460  13.5266  19.6089 0026317   7.1112 352.9924  1.00143938104409
CLUSTER II-FM5 (RUMBA)  
1 26463U 00045A   21219.49097861  .00000078  00000-0  00000-0 0  9994
2 26463 137.5784 347.0087 6076494 198.2027 359.2245  0.44217685 12361
CLUSTER II-FM8 (TANGO)  
1 26464U 00045B   21219.49201865 -.00000003  00000-0  00000-0 0  9995
2 26464 132.9934 344.9201 5002653 193.1293 359.2346  0.44219874 12449
RADUGA-1 5              
1 26477U 00049A   21218.90327009 -.00000341  00000-0  00000-0 0  9992
2 26477  12.9395  20.7943 0006659  47.7416 316.9199  1.00255199 76628
SL-12 R/B(2)            
1 26486U 00051D   21217.90291291 -.00000180  00000-0  00000+0 0  9997
2 26486  62.9150  15.3483 7585020 271.8051 349.4906  1.45764320111332
ARIANE 5 R/B            
1 26496U 00054C   21218.55397417 -.00000046  00000-0 -38551-3 0  9998
2 26496   6.7245 164.8220 7169184  57.0043 352.2967  2.24148022171122
NSS-11 (AAP-1)          
1 26554U 00059A   21218.83791414  .00000026  00000-0  00000-0 0  9995
2 26554   0.0655 279.9951 0002534 201.5816 311.6447  1.00270628 23499
SL-12 R/B(2)            
1 26557U 00059D   21218.83132233 -.00000125  00000-0  00000-0 0  9997
2 26557  14.5712 271.3396 5118390  66.6776 359.3951  1.86635778142118
USA 153                 
1 26575U 00065A   21218.87132497 -.00000324  00000-0  00000-0 0  9991
2 26575   8.5718  47.5649 0001396  78.4222 277.7012  1.00276463 15129
IABS R/B                
1 26577U 00065C   21218.43238035 -.00000251  00000-0  00000-0 0  9999
2 26577  13.4667  15.0380 0052089 234.1344 125.4434  1.01185781  8258
AMC-6 (GE-6)            
1 26580U 00067A   21218.77505506  .00000106  00000-0  00000-0 0  9990
2 26580   0.0353 304.2705 0002871 217.5831 293.6771  1.00272133 76120
SL-12 R/B(2)            
1 26583U 00067D   21218.81637493 -.00000063  00000-0  00000-0 0  9992
2 26583  17.3444 125.8265 5542791 334.3378   6.3713  1.93858392146810
INTELSAT 12 (IS-12)     
1 26590U 00068A   21219.03096723  .00000011  00000-0  00000+0 0  9992
2 26590   3.9111  82.5656 0006051  16.2678 292.3125  1.00272212 76007
INTELSAT 1R (IS-1R)     
1 26608U 00072A   21218.83416300 -.00000140  00000-0  00000-0 0  9996
2 26608   3.7044  83.3974 0000427 290.1276  39.4410  1.00271770 23513
PHASE 3D (AO-40)        
1 26609U 00072B   21218.27675359  .00000002  00000-0  00000-0 0  9992
2 26609   9.1350 317.0309 7947180 279.1527   8.3556  1.25586923 95197
STRV 1C                 
1 26610U 00072C   21218.34621735 -.00000230  00000-0 -37474-2 0  9993
2 26610   6.1262 245.0832 7338259  93.3738 344.5783  2.03494029153914
